HST                     
1 20580U 90037B   25217.69876450  .00005745  00000+0  21032-3 0  9997
2 20580  28.4689  69.1937 0001693 282.6101  77.4304 15.25791255740253
POLAR                   
1 23802U 96013A   25216.48090900  .00000300  00000+0  00000+0 0  9991
2 23802  79.4990 230.5437 6164791 219.7686  73.0515  1.29846735140744
SWAS                    
1 25560U 98071A   25217.57445452  .00003897  00000+0  27021-3 0  9997
2 25560  69.8988 319.5819 0005665 354.3512   5.7586 15.06463929449945
CXO                     
1 25867U 99040B   25219.68491146  .00000921  00000+0  00000+0 0  9998
2 25867  50.5084 127.5403 8340662 310.0269   0.7400  0.37796433 16138
XMM-NEWTON              
1 25989U 99066A   25219.22876593  .00000188  00000+0  00000+0 0  9999
2 25989  66.0206 287.1350 4814898  70.3945   0.1250  0.50135502 21430
TERRA                   
1 25994U 99068A   25217.56765685  .00000396  00000+0  90260-4 0  9994
2 25994  97.9949 273.8447 0003317 126.8218   9.4058 14.60752886363527
CLUSTER II-FM7 (SAMBA)  
1 26410U 00041A   25218.42496770  .00002906  00000+0  00000+0 0  9990
2 26410 145.2683  14.7337 8489585 230.1308 359.4076  0.44812260 30658
CLUSTER II-FM5 (RUMBA)  
1 26463U 00045A   25216.74702619  .00011263  00000+0  00000+0 0  9993
2 26463 149.8987  85.7835 9102915 305.1783   0.9533  0.42923211 18776
CLUSTER II-FM8 (TANGO)  
1 26464U 00045B   25218.19962055  .00003004  00000+0  00000+0 0  9991
2 26464 145.5536  15.1994 8494795 230.4458 359.4269  0.44422349 66567
ODIN                    
1 26702U 01007A   25217.63146150  .00018200  00000+0  41475-3 0  9992
2 26702  97.4404 242.2241 0003260 205.9172 154.1913 15.42980724340374
TIMED                   
1 26998U 01055B   25217.30329317  .00001307  00000+0  12595-3 0  9995
2 26998  74.0692 150.5075 0000767 294.1021  66.0083 14.94093117283629
CORIOLIS                
1 27640U 03001A   25217.57064336  .00000117  00000+0  75571-4 0  9991
2 27640  98.7139 224.2896 0014889  45.4237 314.8152 14.19807200169435
SORCE                   
1 27651U 03004A   25217.47467045  .00002436  00000+0  19890-3 0  9996
2 27651  39.9908 259.4151 0018246 296.7346  63.1580 15.00891303224401
MOST                    
1 27843U 03031D   25217.47181553  .00000074  00000+0  54001-4 0  9996
2 27843  98.7069 224.5924 0011036  84.7907 275.4529 14.21221571145863
SCISAT 1                
1 27858U 03036A   25217.32797755  .00000630  00000+0  86462-4 0  9992
2 27858  73.9293  78.6335 0008386 221.0626 138.9920 14.80791692184687
SWIFT                   
1 28485U 04047A   25217.57969358  .00022383  00000+0  51923-3 0  9991
2 28485  20.5558  46.1054 0005515 332.0644  27.9501 15.40277301137715
HINODE (SOLAR-B)        
1 29479U 06041A   25217.46919813  .00000706  00000+0  13144-3 0  9998
2 29479  98.0718 233.1152 0017013 205.1387 154.8991 14.68000186  8549
SHIJIAN-6 02A (SJ-6 02A)
1 29505U 06046A   25217.96267491  .00005277  00000+0  31116-3 0  9993
2 29505  97.6799 251.9544 00047883 131.9278 228.2361 15.11994796 24553
SHIJIAN-6 02B (SJ-6 02B)
1 29506U 06046B   25217.96212065  .00002013  00000+0  16652-3 0  9994
2 29506  97.7067 244.9190 00088264  44.9160 315.2776 15.00018378 23460
FGRST (GLAST)           
1 33053U 08029A   25217.44468424  .00002599  00000+0  98367-4 0  9997
2 33053  25.5810 232.8982 0008498 203.7363 156.2783 15.21396104947659
IBEX                    
1 33401U 08051A   25206.97184344 -.00002141  00000+0  00000+0 0  9997
2 33401  46.2961  10.9471 7278850  50.1397   2.4308  0.10949703  5381
SDO                     
1 36395U 10005A   25217.16745176 -.00000092  00000+0  00000+0 0  9996
2 36395  33.9826  91.1735 0000639  88.1510  92.9451  1.00276916 56896
CRYOSAT 2               
1 36508U 10013A   25217.63491582  .00000237  00000+0  58103-4 0  9994
2 36508  92.0113 200.9937 0002167  89.2004 270.9451 14.51911146812292
X-SAT                   
1 37389U 11015C   25217.98807361  .00000077  00000+0  50280-4 0  9999
2 37389  98.3155 205.7081 00138942 183.4975 176.6111 14.25057148742788
GCOM-W1 (SHIZUKU)       
1 38337U 12025A   25217.58590528  .00000496  00000+0  12011-3 0  9999
2 38337  98.2026 157.6217 0001506  86.4377  86.4686 14.57109748703070
NUSTAR                  
1 38358U 12031A   25217.66667824  .00017073  00000+0  11301-2 0  9991
2 38358   6.0262 233.2316 0007408 113.5534 341.3809 15.04308901  1309
NEOSSAT                 
1 39089U 13009D   25217.51108223  .00000169  00000+0  73332-4 0  9998
2 39089  98.4090  40.2359 0012210 105.8668 254.3865 14.35635685651443
BRITE-AUSTRIA           
1 39091U 13009F   25217.45587383  .00000186  00000+0  78071-4 0  9996
2 39091  98.3902  39.9094 0011431 101.7206 258.5264 14.36334682651729
IRIS                    
1 39197U 13033A   25217.62624473  .00001012  00000+0  12562-3 0  9992
2 39197  97.9508  52.7696 0023501 270.7845  89.0677 14.84695649653533
HISAKI (SPRINT-A)       
1 39253U 13049A   25217.61238286  .00000092  00000+0  37855-4 0  9994
2 39253  29.7220  24.3573 0136956 338.4050  21.0788 13.55498338588571
CASSIOPE                
1 39265U 13055A   25217.62368993  .00030798 -64212-6  46489-3 0  9995
2 39265  80.9387  82.7845 0381142  28.1166 334.0065 15.00794057619947
STSAT-3                 
1 39422U 13066G   25217.96774109  .00002340  00000+0  19204-3 0  9993
2 39422  97.5670 189.5317 00174416  37.2523 322.9907 15.00058116636908
SWARM B                 
1 39451U 13067A   25217.63089119  .00002904  00000+0  11301-3 0  9996
2 39451  87.7398  77.9702 0002993  96.6559 263.5029 15.25609375635083
SWARM A                 
1 39452U 13067B   25217.64061315  .00008279  00000+0  18603-3 0  9999
2 39452  87.3435 172.6024 0003340  94.5763 265.5875 15.43167770657468
SWARM C                 
1 39453U 13067C   25217.64050713  .00008353  00000+0  18769-3 0  9996
2 39453  87.3434 171.1930 0003328  94.4924 265.6713 15.43168954657425
BRITE-CA1 (TORONTO)     
1 40020U 14033L   25217.61693975  .00001163  00000+0  18568-3 0  9991
2 40020  97.9326 348.3758 0079384 206.2352 153.4825 14.71719137595786
OCO 2                   
1 40059U 14035A   25217.61845218  .00000430  00000+0  10540-3 0  9992
2 40059  98.2024 158.4005 0001375  81.8271 278.3083 14.57116433590090
BRITE-PL2 (HEWELIUSZ)   
1 40119U 14049B   25217.53371238  .00001463  00000+0  14686-3 0  9993
2 40119  97.8934 322.9073 0015859  77.5871 282.7121 14.92775539594324
MMS 1                   
1 40482U 15011A   25217.66667824 -.00002094  00000+0  00000+0 0  9992
2 40482  66.1753 354.0823 8654371 160.5950 118.7548  0.28496389  1366
MMS 2                   
1 40483U 15011B   25217.66667824 -.00002095  00000+0  00000+0 0  9994
2 40483  66.1768 354.0815 8656951 160.5930 118.7582  0.28496403  1363
MMS 3                   
1 40484U 15011C   25217.66667824 -.00002094  00000+0  00000+0 0  9994
2 40484  66.1813 354.0904 8655845 160.6025 118.7265  0.28496423  1383
MMS 4                   
1 40485U 15011D   25217.66667824 -.00002094  00000+0  00000+0 0  9995
2 40485  66.1702 354.0775 8655819 160.6100 118.7135  0.28496222  1363
ASTROSAT                
1 40930U 15052A   25217.01501754  .00001750  00000+0  13502-3 0  9995
2 40930   5.9967 269.6433 0008353 205.0740 154.8982 14.81531562532849
DAMPE                   
1 41173U 15078A   25217.98155647  .00001282  00000+0  47275-4 0  9990
2 41173  97.4503 217.2525 00139598 111.5212 248.7518 15.29586489536341
PISAT                   
1 41784U 16059B   25217.47413775  .00000989  00000+0  17931-3 0  9999
2 41784  97.8167 226.7728 0030695 131.9802 228.4026 14.68040280473400
HXMT (HUIYAN)           
1 42758U 17034A   25217.98065338  .00004407  00000+0  24558-3 0  9991
2 42758  43.0144 132.9932 00352776 312.1265  47.6585 15.14267228449801
FLYING LAPTOP           
1 42831U 17042G   25218.00003610  .00002268  00000+0  19176-3 0  9994
2 42831  97.4101  22.7367 00137712 115.9874 244.2770 14.98938632439202
ZHANGHENG 1-01 (CSES-1) 
1 43194U 18015C   25217.97799721  .00007647  00000+0  34648-3 0  9995
2 43194  97.6546  12.9941 00126319 319.3283  40.7007 15.21085065416739
SALSAT                  
1 46495U 20068K   25217.51080676  .00006521  00000+0  27664-3 0  9995
2 46495  97.8639 198.2090 0009972 333.2539  26.8181 15.23440738267194
IXPE                    
1 49954U 21121A   25217.66667824  .00009870  00000+0  59870-3 0  9995
2 49954   0.2291 176.4344 0007995 354.7884 291.2452 15.05962304  5022
